{"type":"FeatureCollection","name":"San Francisco land-fit scenario (mock)","bbox":[-122.435794,37.755295,-122.416567,37.775432],"scenario_status":"MOCK_SIMULATION","observed_population":{"source_dataset":"San Francisco parks + 2020 Census official snapshot","source_file":"data/real/sf-parks-census.geojson","source_sha256":"c97fcf087060a3cab5fd82d220e2cbcfeab5f056ee24976977f2c645402944e6","population_geoids":["06075016801","06075016802","06075016900","06075020101","06075020102","06075020201","06075020202","06075020300","06075020601","06075020702","06075020801","06075020802"],"population_year":2020,"synthetic":false},"service_inventory":{"source":"Simulated SF mock clinic/library points; no real service inventory used","as_of":"2026-09-26","record_counts_scope":"supplied simulated point features only; not actual citywide facility counts","completeness_by_type":{"clinic":"synthetic_example_only","library":"synthetic_example_only","school":"unknown","community_center":"unknown"}},"land_inventory":{"source":"SF mock-simulation rectangles, obstructions, and restrictions; no parcel/availability records used","as_of":"2026-09-26","building_coverage":"complete_for_candidate_sites","restriction_coverage":"complete_for_candidate_sites","land_status_semantics":"available means available only in this synthetic fixture; it is not evidence of real ownership, vacancy, legal availability, or buildability","footprint_width_m":24,"footprint_depth_m":18,"setback_m":3,"site_geometry_is_simulated":true},"features":[{"type":"Feature","id":"tract-06075016801","properties":{"layer":"population","id":"06075016801","geoid":"06075016801","name":"Census Tract 168.01","population":4282,"population_year":2020,"source":"sf_tracts_2020 + census2020_population"},"geometry":{"type":"MultiPolygon","coordinates":[[[[-122.432351,37.773779],[-122.430825,37.773973],[-122.430629,37.773039],[-122.42899,37.773247999999995],[-122.42889,37.772754],[-122.428857,37.77259],[-122.42880199999999,37.772316],[-122.42715799999999,37.772525],[-122.425512,37.772734],[-122.425322,37.771795],[-122.425136,37.770869],[-122.42492899999999,37.770778],[-122.426402,37.769596],[-122.426684,37.769534],[-122.42822,37.769441],[-122.428991,37.769394],[-122.42912799999999,37.769456],[-122.429906,37.769408],[-122.430247,37.769391999999996],[-122.43135699999999,37.769321],[-122.43157,37.769307],[-122.43171699999999,37.770035],[-122.431811,37.770500999999996],[-122.431904,37.770964],[-122.431998,37.771431],[-122.432092,37.771896999999996],[-122.43227999999999,37.772829],[-122.432467,37.773756999999996],[-122.432351,37.773779]]]]}},{"type":"Feature","id":"tract-06075016802","properties":{"layer":"population","id":"06075016802","geoid":"06075016802","name":"Census Tract 168.02","population":3928,"population_year":2020,"source":"sf_tracts_2020 + census2020_population"},"geometry":{"type":"MultiPolygon","coordinates":[[[[-122.430825,37.773973],[-122.42917800000001,37.774181],[-122.427546,37.774387999999995],[-122.425888,37.774598999999995],[-122.424343,37.774799],[-122.424246,37.774811],[-122.424127,37.774826],[-122.422598,37.775020999999995],[-122.421097,37.775219],[-122.42096,37.775231999999995],[-122.420795,37.775248999999995],[-122.419789,37.775372999999995],[-122.419359,37.775431999999995],[-122.41933399999999,37.77521],[-122.419681,37.774871],[-122.420177,37.774457],[-122.420254,37.774359],[-122.420714,37.774077999999996],[-122.421089,37.773775],[-122.42132,37.773592],[-122.421916,37.773123],[-122.421989,37.773074],[-122.422186,37.772909],[-122.42262,37.772503],[-122.423267,37.772058],[-122.423402,37.771975],[-122.423525,37.771898],[-122.423632,37.771806999999995],[-122.423665,37.771781],[-122.42492899999999,37.770778],[-122.425136,37.770869],[-122.425322,37.771795],[-122.425512,37.772734],[-122.42715799999999,37.772525],[-122.42880199999999,37.772316],[-122.428857,37.77259],[-122.42889,37.772754],[-122.42899,37.773247999999995],[-122.430629,37.773039],[-122.430825,37.773973]]]]}},{"type":"Feature","id":"tract-06075016900","properties":{"layer":"population","id":"06075016900","geoid":"06075016900","name":"Census Tract 169","population":3425,"population_year":2020,"source":"sf_tracts_2020 + census2020_population"},"geometry":{"type":"MultiPolygon","coordinates":[[[[-122.435794,37.769058],[-122.434893,37.769113999999995],[-122.433572,37.769178],[-122.432464,37.76925],[-122.43157,37.769307],[-122.43135699999999,37.769321],[-122.430247,37.769391999999996],[-122.429906,37.769408],[-122.42912799999999,37.769456],[-122.428991,37.769394],[-122.42822,37.769441],[-122.426684,37.769534],[-122.426402,37.769596],[-122.42655500000001,37.769484999999996],[-122.426948,37.769175],[-122.42746199999999,37.768769999999996],[-122.428635,37.767846],[-122.428657,37.767735],[-122.428949,37.767503999999995],[-122.429299,37.767275999999995],[-122.430722,37.766197999999996],[-122.430824,37.766014],[-122.431028,37.765901],[-122.43163,37.765454],[-122.432909,37.764444999999995],[-122.433089,37.764266],[-122.433456,37.764010999999996],[-122.434584,37.763177],[-122.435014,37.762859],[-122.435193,37.762727],[-122.43519599999999,37.762766],[-122.43520000000001,37.762806],[-122.435204,37.762848999999996],[-122.435216,37.762983],[-122.435259,37.763463],[-122.435317,37.764102],[-122.435396,37.764925999999996],[-122.435472,37.765727],[-122.435548,37.766528],[-122.435624,37.767328],[-122.435794,37.769058]]]]}},{"type":"Feature","id":"tract-06075020101","properties":{"layer":"population","id":"06075020101","geoid":"06075020101","name":"Census Tract 201.01","population":3841,"population_year":2020,"source":"sf_tracts_2020 + census2020_population"},"geometry":{"type":"MultiPolygon","coordinates":[[[[-122.42262,37.772503],[-122.422186,37.772909],[-122.421989,37.773074],[-122.421916,37.773123],[-122.42132,37.773592],[-122.421089,37.773775],[-122.420714,37.774077999999996],[-122.420254,37.774359],[-122.420177,37.774457],[-122.419681,37.774871],[-122.41933399999999,37.77521],[-122.419299,37.775034],[-122.419271,37.774904],[-122.418699,37.773081],[-122.418685,37.773035],[-122.418638,37.772905],[-122.418608,37.772731],[-122.418469,37.772323],[-122.418439,37.772223],[-122.418399,37.772102],[-122.418029,37.770876],[-122.41799499999999,37.770765],[-122.417915,37.770626],[-122.417794,37.770435],[-122.41772,37.770357],[-122.417777,37.769974999999995],[-122.41778099999999,37.769918],[-122.417764,37.769857],[-122.417761,37.769802999999996],[-122.417788,37.769760999999995],[-122.41780299999999,37.769739],[-122.417805,37.769718999999995],[-122.41781,37.76967],[-122.417813,37.769636999999996],[-122.41783,37.769467],[-122.417857,37.769194],[-122.417838,37.768485999999996],[-122.417802,37.768405],[-122.417645,37.766805],[-122.418403,37.76676],[-122.418734,37.766739],[-122.419072,37.766718999999995],[-122.419825,37.766673999999995],[-122.420638,37.766625],[-122.42105699999999,37.766599],[-122.421531,37.766571],[-122.422044,37.76654],[-122.422122,37.767344],[-122.42214,37.767531],[-122.422199,37.768139999999995],[-122.422258,37.768754],[-122.422308,37.769278],[-122.422365,37.769867999999995],[-122.422439,37.770664],[-122.422444,37.770714999999996],[-122.422457,37.770861],[-122.42252500000001,37.771588],[-122.422487,37.771694],[-122.422551,37.772208],[-122.422632,37.772368],[-122.42262,37.772503]]]]}},{"type":"Feature","id":"tract-06075020102","properties":{"layer":"population","id":"06075020102","geoid":"06075020102","name":"Census Tract 201.02","population":3081,"population_year":2020,"source":"sf_tracts_2020 + census2020_population"},"geometry":{"type":"MultiPolygon","coordinates":[[[[-122.422044,37.76654],[-122.421531,37.766571],[-122.42105699999999,37.766599],[-122.420638,37.766625],[-122.419825,37.766673999999995],[-122.419072,37.766718999999995],[-122.418734,37.766739],[-122.418403,37.76676],[-122.417645,37.766805],[-122.417542,37.765752],[-122.417487,37.765183],[-122.417332,37.763571999999996],[-122.418484,37.763495999999996],[-122.419513,37.763428999999995],[-122.420433,37.763376],[-122.42108400000001,37.763338],[-122.42173199999999,37.7633],[-122.421853,37.764571],[-122.421886,37.764917],[-122.421964,37.765721],[-122.422044,37.76654]]]]}},{"type":"Feature","id":"tract-06075020201","properties":{"layer":"population","id":"06075020201","geoid":"06075020201","name":"Census Tract 202.01","population":2494,"population_year":2020,"source":"sf_tracts_2020 + census2020_population"},"geometry":{"type":"MultiPolygon","coordinates":[[[[-122.426462,37.766272],[-122.4252,37.766349],[-122.4243,37.766403],[-122.424224,37.766408],[-122.423281,37.766465],[-122.422044,37.76654],[-122.421964,37.765721],[-122.421886,37.764917],[-122.421853,37.764571],[-122.42173199999999,37.7633],[-122.422699,37.763242999999996],[-122.423075,37.763221],[-122.423895,37.763172],[-122.42400599999999,37.763165],[-122.424807,37.763117],[-122.426137,37.763036],[-122.42624599999999,37.763979],[-122.426293,37.764651],[-122.426418,37.765784],[-122.426462,37.766272]]]]}},{"type":"Feature","id":"tract-06075020202","properties":{"layer":"population","id":"06075020202","geoid":"06075020202","name":"Census Tract 202.02","population":3914,"population_year":2020,"source":"sf_tracts_2020 + census2020_population"},"geometry":{"type":"MultiPolygon","coordinates":[[[[-122.426948,37.769175],[-122.42655500000001,37.769484999999996],[-122.426402,37.769596],[-122.42492899999999,37.770778],[-122.423665,37.771781],[-122.423632,37.771806999999995],[-122.423525,37.771898],[-122.423402,37.771975],[-122.423267,37.772058],[-122.42262,37.772503],[-122.422632,37.772368],[-122.422551,37.772208],[-122.422487,37.771694],[-122.42252500000001,37.771588],[-122.422457,37.770861],[-122.422444,37.770714999999996],[-122.422439,37.770664],[-122.422365,37.769867999999995],[-122.422308,37.769278],[-122.422258,37.768754],[-122.422199,37.768139999999995],[-122.42214,37.767531],[-122.422122,37.767344],[-122.422044,37.76654],[-122.423281,37.766465],[-122.424224,37.766408],[-122.4243,37.766403],[-122.4252,37.766349],[-122.426462,37.766272],[-122.426515,37.767047999999996],[-122.426587,37.767875],[-122.426713,37.768982],[-122.426858,37.769042],[-122.426948,37.769175]]]]}},{"type":"Feature","id":"tract-06075020300","properties":{"layer":"population","id":"06075020300","geoid":"06075020300","name":"Census Tract 203","population":3624,"population_year":2020,"source":"sf_tracts_2020 + census2020_population"},"geometry":{"type":"MultiPolygon","coordinates":[[[[-122.435193,37.762727],[-122.435014,37.762859],[-122.434584,37.763177],[-122.433456,37.764010999999996],[-122.433089,37.764266],[-122.432909,37.764444999999995],[-122.43163,37.765454],[-122.431028,37.765901],[-122.430824,37.766014],[-122.430722,37.766197999999996],[-122.429299,37.767275999999995],[-122.428949,37.767503999999995],[-122.428657,37.767735],[-122.428635,37.767846],[-122.42746199999999,37.768769999999996],[-122.426948,37.769175],[-122.426858,37.769042],[-122.426713,37.768982],[-122.426587,37.767875],[-122.426515,37.767047999999996],[-122.426462,37.766272],[-122.426418,37.765784],[-122.426293,37.764651],[-122.42624599999999,37.763979],[-122.426137,37.763036],[-122.426298,37.763027],[-122.426792,37.762996],[-122.427167,37.762972999999995],[-122.42850899999999,37.76289],[-122.43072699999999,37.762753],[-122.431545,37.762702999999995],[-122.432124,37.762668],[-122.43294900000001,37.762617999999996],[-122.434062,37.762550999999995],[-122.43494,37.762502],[-122.435188,37.762671],[-122.435193,37.762727]]]]}},{"type":"Feature","id":"tract-06075020601","properties":{"layer":"population","id":"06075020601","geoid":"06075020601","name":"Census Tract 206.01","population":2906,"population_year":2020,"source":"sf_tracts_2020 + census2020_population"},"geometry":{"type":"MultiPolygon","coordinates":[[[[-122.435188,37.762671],[-122.43494,37.762502],[-122.434062,37.762550999999995],[-122.43294900000001,37.762617999999996],[-122.432124,37.762668],[-122.431545,37.762702999999995],[-122.43072699999999,37.762753],[-122.42850899999999,37.76289],[-122.427167,37.762972999999995],[-122.426792,37.762996],[-122.426298,37.763027],[-122.426137,37.763036],[-122.426104,37.762631],[-122.42607100000001,37.762206],[-122.425983,37.761433],[-122.425836,37.759834999999995],[-122.425748,37.759036],[-122.425685,37.758232],[-122.42587,37.758221],[-122.42805,37.758089],[-122.42812599999999,37.75889],[-122.428202,37.759692],[-122.43042,37.759557],[-122.432638,37.759423],[-122.433745,37.759356],[-122.434854,37.759288999999995],[-122.435001,37.760889],[-122.435141,37.762414],[-122.435188,37.762671]]]]}},{"type":"Feature","id":"tract-06075020702","properties":{"layer":"population","id":"06075020702","geoid":"06075020702","name":"Census Tract 207.02","population":2520,"population_year":2020,"source":"sf_tracts_2020 + census2020_population"},"geometry":{"type":"MultiPolygon","coordinates":[[[[-122.426137,37.763036],[-122.424807,37.763117],[-122.42400599999999,37.763165],[-122.423895,37.763172],[-122.423075,37.763221],[-122.422699,37.763242999999996],[-122.42173199999999,37.7633],[-122.421695,37.762917],[-122.421662,37.762578999999995],[-122.421578,37.761700999999995],[-122.421425,37.760101],[-122.422258,37.760051],[-122.422879,37.760013],[-122.423604,37.759969],[-122.423684,37.759964],[-122.424863,37.759893999999996],[-122.425836,37.759834999999995],[-122.425983,37.761433],[-122.42607100000001,37.762206],[-122.426104,37.762631],[-122.426137,37.763036]]]]}},{"type":"Feature","id":"tract-06075020801","properties":{"layer":"population","id":"06075020801","geoid":"06075020801","name":"Census Tract 208.01","population":3618,"population_year":2020,"source":"sf_tracts_2020 + census2020_population"},"geometry":{"type":"MultiPolygon","coordinates":[[[[-122.421425,37.760101],[-122.42066,37.760148],[-122.419975,37.760189],[-122.419206,37.760235],[-122.41811799999999,37.760301],[-122.41702599999999,37.760366999999995],[-122.416872,37.758764],[-122.41672,37.757166999999995],[-122.416567,37.755568],[-122.417659,37.755502],[-122.418748,37.755437],[-122.419858,37.755365999999995],[-122.420964,37.755295],[-122.421041,37.756102],[-122.421118,37.756902],[-122.421194,37.757701],[-122.421272,37.758499],[-122.421355,37.759372],[-122.421425,37.760101]]]]}},{"type":"Feature","id":"tract-06075020802","properties":{"layer":"population","id":"06075020802","geoid":"06075020802","name":"Census Tract 208.02","population":3143,"population_year":2020,"source":"sf_tracts_2020 + census2020_population"},"geometry":{"type":"MultiPolygon","coordinates":[[[[-122.42173199999999,37.7633],[-122.42108400000001,37.763338],[-122.420433,37.763376],[-122.419513,37.763428999999995],[-122.418484,37.763495999999996],[-122.417332,37.763571999999996],[-122.417179,37.761967999999996],[-122.41702599999999,37.760366999999995],[-122.41811799999999,37.760301],[-122.419206,37.760235],[-122.419975,37.760189],[-122.42066,37.760148],[-122.421425,37.760101],[-122.421578,37.761700999999995],[-122.421662,37.762578999999995],[-122.421695,37.762917],[-122.42173199999999,37.7633]]]]}},{"type":"Feature","id":"sfmock-fit-01","properties":{"layer":"candidate_site","site_id":"sfmock-fit-01","name":"Mock candidate A · Mission North","land_status":"available","scenario_expected_fit":"fit","allowed_services":["clinic","library","school","community_center"],"source":"Simulated parcel for SF mock demo; not an actual availability record","scenario_only":true,"nominal_lot_width_m":60,"nominal_lot_depth_m":50,"required_building_width_m":24,"required_building_depth_m":18,"setback_m":3},"geometry":{"type":"Polygon","coordinates":[[[-122.43084092825096,37.77037390706676],[-122.43015907174903,37.77037390706676],[-122.43015907174903,37.77082609293324],[-122.43084092825096,37.77082609293324],[-122.43084092825096,37.77037390706676]]]}},{"type":"Feature","id":"sfmock-fit-02","properties":{"layer":"candidate_site","site_id":"sfmock-fit-02","name":"Mock candidate B · Mission Central","land_status":"available","scenario_expected_fit":"fit","allowed_services":["clinic","library","school","community_center"],"source":"Simulated parcel for SF mock demo; not an actual availability record","scenario_only":true,"nominal_lot_width_m":60,"nominal_lot_depth_m":50,"required_building_width_m":24,"required_building_depth_m":18,"setback_m":3},"geometry":{"type":"Polygon","coordinates":[[[-122.42554091949114,37.76847390706676],[-122.42485908050887,37.76847390706676],[-122.42485908050887,37.76892609293324],[-122.42554091949114,37.76892609293324],[-122.42554091949114,37.76847390706676]]]}},{"type":"Feature","id":"sfmock-fit-03","properties":{"layer":"candidate_site","site_id":"sfmock-fit-03","name":"Mock candidate C · Mission East","land_status":"available","scenario_expected_fit":"fit","allowed_services":["clinic","library","school","community_center"],"source":"Simulated parcel for SF mock demo; not an actual availability record","scenario_only":true,"nominal_lot_width_m":60,"nominal_lot_depth_m":50,"required_building_width_m":24,"required_building_depth_m":18,"setback_m":3},"geometry":{"type":"Polygon","coordinates":[[[-122.42034093793384,37.77247390706676],[-122.41965906206616,37.77247390706676],[-122.41965906206616,37.77292609293324],[-122.42034093793384,37.77292609293324],[-122.42034093793384,37.77247390706676]]]}},{"type":"Feature","id":"sfmock-fit-04","properties":{"layer":"candidate_site","site_id":"sfmock-fit-04","name":"Mock candidate D · Mission South","land_status":"available","scenario_expected_fit":"fit","allowed_services":["clinic","library","school","community_center"],"source":"Simulated parcel for SF mock demo; not an actual availability record","scenario_only":true,"nominal_lot_width_m":60,"nominal_lot_depth_m":50,"required_building_width_m":24,"required_building_depth_m":18,"setback_m":3},"geometry":{"type":"Polygon","coordinates":[[[-122.41954090243489,37.76477390706676],[-122.41885909756512,37.76477390706676],[-122.41885909756512,37.76522609293324],[-122.41954090243489,37.76522609293324],[-122.41954090243489,37.76477390706676]]]}},{"type":"Feature","id":"sfmock-building-blocked","properties":{"layer":"candidate_site","site_id":"sfmock-building-blocked","name":"Mock candidate E · building obstruction","land_status":"available","scenario_expected_fit":"blocked_by_building","allowed_services":["clinic","library","school","community_center"],"source":"Simulated parcel for SF mock demo; not an actual availability record","scenario_only":true,"nominal_lot_width_m":60,"nominal_lot_depth_m":50,"required_building_width_m":24,"required_building_depth_m":18,"setback_m":3},"geometry":{"type":"Polygon","coordinates":[[[-122.43114089229482,37.76257390706676],[-122.43045910770519,37.76257390706676],[-122.43045910770519,37.76302609293324],[-122.43114089229482,37.76302609293324],[-122.43114089229482,37.76257390706676]]]}},{"type":"Feature","id":"sfmock-building-obstruction-01","properties":{"layer":"building","name":"Simulated existing building obstruction","height_m":8.4,"source":"Simulated building footprint for SF mock demo; not an observed building record","scenario_only":true},"geometry":{"type":"Polygon","coordinates":[[[-122.43111816614184,37.76259199450142],[-122.43048183385817,37.76259199450142],[-122.43048183385817,37.76300800549858],[-122.43111816614184,37.76300800549858],[-122.43111816614184,37.76259199450142]]]}},{"type":"Feature","id":"sfmock-restricted","properties":{"layer":"candidate_site","site_id":"sfmock-restricted","name":"Mock candidate F · restricted area","land_status":"available","scenario_expected_fit":"restricted","allowed_services":["clinic","library","school","community_center"],"source":"Simulated parcel for SF mock demo; not an actual availability record","scenario_only":true,"nominal_lot_width_m":60,"nominal_lot_depth_m":50,"required_building_width_m":24,"required_building_depth_m":18,"setback_m":3},"geometry":{"type":"Polygon","coordinates":[[[-122.42634088077337,37.76007390706676],[-122.42565911922664,37.76007390706676],[-122.42565911922664,37.76052609293324],[-122.42634088077337,37.76052609293324],[-122.42634088077337,37.76007390706676]]]}},{"type":"Feature","id":"sfmock-restricted-area-01","properties":{"layer":"restricted","name":"Simulated no-build area","restriction_type":"mock_site_constraint","source":"Simulated restriction for SF mock demo; not a legal or environmental restriction record","scenario_only":true},"geometry":{"type":"Polygon","coordinates":[[[-122.42634088077337,37.76007390706676],[-122.42565911922664,37.76007390706676],[-122.42565911922664,37.76052609293324],[-122.42634088077337,37.76052609293324],[-122.42634088077337,37.76007390706676]]]}},{"type":"Feature","id":"sfmock-too-small","properties":{"layer":"candidate_site","site_id":"sfmock-too-small","name":"Mock candidate G · undersized lot","land_status":"available","scenario_expected_fit":"too_small","allowed_services":["clinic","library","school","community_center"],"source":"Simulated parcel for SF mock demo; not an actual availability record","scenario_only":true,"nominal_lot_width_m":29,"nominal_lot_depth_m":23,"required_building_width_m":24,"required_building_depth_m":18,"setback_m":3},"geometry":{"type":"Polygon","coordinates":[[[-122.42066475948593,37.76039599725071],[-122.42033524051408,37.76039599725071],[-122.42033524051408,37.76060400274929],[-122.42066475948593,37.76060400274929],[-122.42066475948593,37.76039599725071]]]}},{"type":"Feature","id":"sfmock-clinic-01","properties":{"layer":"service","service_type":"clinic","name":"Mock neighborhood clinic","source":"Synthetic service point for SF mock demo","scenario_only":true},"geometry":{"type":"Point","coordinates":[-122.4279,37.7672]}},{"type":"Feature","id":"sfmock-library-01","properties":{"layer":"service","service_type":"library","name":"Mock neighborhood library","source":"Synthetic service point for SF mock demo","scenario_only":true},"geometry":{"type":"Point","coordinates":[-122.4218,37.771]}}]}
