{"type":"FeatureCollection","name":"San Francisco OSM mapped service features (snapshot)","bbox":[-122.44,37.753,-122.409,37.781],"service_inventory":{"source":"OpenStreetMap via Overpass API (https://overpass.private.coffee/api/interpreter)","as_of":"2026-05-06","source_timestamp":"2026-05-06T03:25:00Z","record_counts_scope":"OSM features with the query tags, placed at node coordinates or Overpass way/relation centers; this extract is not a definitive directory","completeness_by_type":{"clinic":"mapped_extract_not_complete","library":"mapped_extract_not_complete","school":"mapped_extract_not_complete","community_center":"mapped_extract_not_complete"},"license":"Open Database License (ODbL) 1.0","attribution":"© OpenStreetMap contributors","attribution_url":"https://www.openstreetmap.org/copyright"},"features":[{"type":"Feature","id":"osm-node-358769656","properties":{"layer":"service","service_type":"school","name":"Lombard School","source":"© OpenStreetMap contributors; OSM node/358769656 (ODbL)","osm_type":"node","osm_id":358769656,"osm_url":"https://www.openstreetmap.org/node/358769656","source_timestamp":"2026-05-06T03:25:00Z","location_method":"node coordinate","osm_amenity":"school"},"geometry":{"type":"Point","coordinates":[-122.4341379,37.7749296]}},{"type":"Feature","id":"osm-node-358803243","properties":{"layer":"service","service_type":"school","name":"Collegio De La Mission","source":"© OpenStreetMap contributors; OSM node/358803243 (ODbL)","osm_type":"node","osm_id":358803243,"osm_url":"https://www.openstreetmap.org/node/358803243","source_timestamp":"2026-05-06T03:25:00Z","location_method":"node coordinate","osm_amenity":"school"},"geometry":{"type":"Point","coordinates":[-122.4199709,37.7546523]}},{"type":"Feature","id":"osm-node-358805275","properties":{"layer":"service","service_type":"school","name":"Ida B Wells High School","source":"© OpenStreetMap contributors; OSM node/358805275 (ODbL)","osm_type":"node","osm_id":358805275,"osm_url":"https://www.openstreetmap.org/node/358805275","source_timestamp":"2026-05-06T03:25:00Z","location_method":"node coordinate","osm_amenity":"school"},"geometry":{"type":"Point","coordinates":[-122.4338305,37.774995]}},{"type":"Feature","id":"osm-node-368168766","properties":{"layer":"service","service_type":"library","name":"Far West Library for Educational Research and Development","source":"© OpenStreetMap contributors; OSM node/368168766 (ODbL)","osm_type":"node","osm_id":368168766,"osm_url":"https://www.openstreetmap.org/node/368168766","source_timestamp":"2026-05-06T03:25:00Z","location_method":"node coordinate","osm_amenity":"library"},"geometry":{"type":"Point","coordinates":[-122.414971,37.7671519]}},{"type":"Feature","id":"osm-node-586728486","properties":{"layer":"service","service_type":"clinic","name":"GoHealth Urgent Care","source":"© OpenStreetMap contributors; OSM node/586728486 (ODbL)","osm_type":"node","osm_id":586728486,"osm_url":"https://www.openstreetmap.org/node/586728486","source_timestamp":"2026-05-06T03:25:00Z","location_method":"node coordinate","osm_amenity":"clinic","osm_healthcare":"clinic","operator":"Dignity Health"},"geometry":{"type":"Point","coordinates":[-122.4327705,37.7647518]}},{"type":"Feature","id":"osm-node-1126948230","properties":{"layer":"service","service_type":"school","name":"Mission Child Care","source":"© OpenStreetMap contributors; OSM node/1126948230 (ODbL)","osm_type":"node","osm_id":1126948230,"osm_url":"https://www.openstreetmap.org/node/1126948230","source_timestamp":"2026-05-06T03:25:00Z","location_method":"node coordinate","osm_amenity":"school"},"geometry":{"type":"Point","coordinates":[-122.4303586,37.7677677]}},{"type":"Feature","id":"osm-node-1609600152","properties":{"layer":"service","service_type":"community_center","name":"826 Valencia / The Writing Center","source":"© OpenStreetMap contributors; OSM node/1609600152 (ODbL)","osm_type":"node","osm_id":1609600152,"osm_url":"https://www.openstreetmap.org/node/1609600152","source_timestamp":"2026-05-06T03:25:00Z","location_method":"node coordinate","osm_amenity":"community_centre","opening_hours":"Mo-Su,PH 12:00-18:00","website":"https://826valencia.org/","phone":"+1 415-642-5905"},"geometry":{"type":"Point","coordinates":[-122.421556,37.7595612]}},{"type":"Feature","id":"osm-node-2321383066","properties":{"layer":"service","service_type":"clinic","name":"Magnet","source":"© OpenStreetMap contributors; OSM node/2321383066 (ODbL)","osm_type":"node","osm_id":2321383066,"osm_url":"https://www.openstreetmap.org/node/2321383066","source_timestamp":"2026-05-06T03:25:00Z","location_method":"node coordinate","osm_amenity":"clinic","osm_healthcare":"clinic","website":"http://www.magnetsf.org","phone":"+1-415-581-1600"},"geometry":{"type":"Point","coordinates":[-122.4356406,37.7609461]}},{"type":"Feature","id":"osm-node-3184077146","properties":{"layer":"service","service_type":"library","name":"Mission Temporary Branch, San Francisco Public Library","source":"© OpenStreetMap contributors; OSM node/3184077146 (ODbL)","osm_type":"node","osm_id":3184077146,"osm_url":"https://www.openstreetmap.org/node/3184077146","source_timestamp":"2026-05-06T03:25:00Z","location_method":"node coordinate","osm_amenity":"library","opening_hours":"Mo,Sa 10:00-18:00; Tu-Th 10:00-20:00; Fr 13:00-18:00; Su 13:00-17:00","website":"https://sfpl.org/locations/mission","phone":"+1 415-355-2800","operator":"San Francisco Public Library"},"geometry":{"type":"Point","coordinates":[-122.420946,37.7531416]}},{"type":"Feature","id":"osm-node-3740701650","properties":{"layer":"service","service_type":"school","name":"Eureka Valley Arts","source":"© OpenStreetMap contributors; OSM node/3740701650 (ODbL)","osm_type":"node","osm_id":3740701650,"osm_url":"https://www.openstreetmap.org/node/3740701650","source_timestamp":"2026-05-06T03:25:00Z","location_method":"node coordinate","osm_amenity":"school","website":"https://eurekavalleyarts.com/"},"geometry":{"type":"Point","coordinates":[-122.4212798,37.7567169]}},{"type":"Feature","id":"osm-node-5080508290","properties":{"layer":"service","service_type":"clinic","name":"Carbon Health","source":"© OpenStreetMap contributors; OSM node/5080508290 (ODbL)","osm_type":"node","osm_id":5080508290,"osm_url":"https://www.openstreetmap.org/node/5080508290","source_timestamp":"2026-05-06T03:25:00Z","location_method":"node coordinate","osm_amenity":"clinic","osm_healthcare":"clinic","opening_hours":"Mo-Su 09:00-18:00","website":"https://carbonhealth.com/locations/sf-castro","phone":"+1 415-792-6040","operator":"Carbon Health"},"geometry":{"type":"Point","coordinates":[-122.4263728,37.76982]}},{"type":"Feature","id":"osm-node-6163717802","properties":{"layer":"service","service_type":"school","name":"Gurdjieff Foundation","source":"© OpenStreetMap contributors; OSM node/6163717802 (ODbL)","osm_type":"node","osm_id":6163717802,"osm_url":"https://www.openstreetmap.org/node/6163717802","source_timestamp":"2026-05-06T03:25:00Z","location_method":"node coordinate","osm_amenity":"school"},"geometry":{"type":"Point","coordinates":[-122.4118915,37.7589677]}},{"type":"Feature","id":"osm-node-6441756875","properties":{"layer":"service","service_type":"clinic","name":"Lee Woodward Counseling Center for Women","source":"© OpenStreetMap contributors; OSM node/6441756875 (ODbL)","osm_type":"node","osm_id":6441756875,"osm_url":"https://www.openstreetmap.org/node/6441756875","source_timestamp":"2026-05-06T03:25:00Z","location_method":"node coordinate","osm_healthcare":"clinic","website":"https://www.healthright360.org/program/lee-woodward-counseling-center-women-lwcc","phone":"+1-415-776-1001"},"geometry":{"type":"Point","coordinates":[-122.4198208,37.769461]}},{"type":"Feature","id":"osm-node-6441756876","properties":{"layer":"service","service_type":"clinic","name":"Lyon-Martin Health Services","source":"© OpenStreetMap contributors; OSM node/6441756876 (ODbL)","osm_type":"node","osm_id":6441756876,"osm_url":"https://www.openstreetmap.org/node/6441756876","source_timestamp":"2026-05-06T03:25:00Z","location_method":"node coordinate","osm_healthcare":"clinic","website":"https://lyon-martin.org/","phone":"+1-415-565-7667"},"geometry":{"type":"Point","coordinates":[-122.419837,37.7693179]}},{"type":"Feature","id":"osm-node-6441756877","properties":{"layer":"service","service_type":"clinic","name":"Women's Community Clinic","source":"© OpenStreetMap contributors; OSM node/6441756877 (ODbL)","osm_type":"node","osm_id":6441756877,"osm_url":"https://www.openstreetmap.org/node/6441756877","source_timestamp":"2026-05-06T03:25:00Z","location_method":"node coordinate","osm_healthcare":"clinic","website":"https://womenscommunityclinic.org/","phone":"+1-415-379-7800"},"geometry":{"type":"Point","coordinates":[-122.4198034,37.7696041]}},{"type":"Feature","id":"osm-node-6604085465","properties":{"layer":"service","service_type":"community_center","name":"The Mix","source":"© OpenStreetMap contributors; OSM node/6604085465 (ODbL)","osm_type":"node","osm_id":6604085465,"osm_url":"https://www.openstreetmap.org/node/6604085465","source_timestamp":"2026-05-06T03:25:00Z","location_method":"node coordinate","osm_amenity":"community_centre","opening_hours":"Mo,Fr 13:00-18:00; Tu-Th 13:00-20:00; Sa-Su 12:00-18:00; PH off","website":"https://themixatsfpl.org/"},"geometry":{"type":"Point","coordinates":[-122.4159638,37.7790025]}},{"type":"Feature","id":"osm-node-6698447685","properties":{"layer":"service","service_type":"clinic","name":"One Medical","source":"© OpenStreetMap contributors; OSM node/6698447685 (ODbL)","osm_type":"node","osm_id":6698447685,"osm_url":"https://www.openstreetmap.org/node/6698447685","source_timestamp":"2026-05-06T03:25:00Z","location_method":"node coordinate","osm_amenity":"clinic","osm_healthcare":"clinic","opening_hours":"Mo 08:00-20:00; Tu 08:30-16:30,17:30-20:30; We-Sa 08:00-20:30; Su 08:00-17:00","phone":"+1 415-593-3080","operator":"1Life Healthcare"},"geometry":{"type":"Point","coordinates":[-122.429995,37.7664048]}},{"type":"Feature","id":"osm-node-6821738162","properties":{"layer":"service","service_type":"clinic","name":"One Medical","source":"© OpenStreetMap contributors; OSM node/6821738162 (ODbL)","osm_type":"node","osm_id":6821738162,"osm_url":"https://www.openstreetmap.org/node/6821738162","source_timestamp":"2026-05-06T03:25:00Z","location_method":"node coordinate","osm_amenity":"clinic","osm_healthcare":"clinic","operator":"1Life Healthcare"},"geometry":{"type":"Point","coordinates":[-122.4219789,37.7636717]}},{"type":"Feature","id":"osm-node-9656568091","properties":{"layer":"service","service_type":"clinic","name":"One Medical","source":"© OpenStreetMap contributors; OSM node/9656568091 (ODbL)","osm_type":"node","osm_id":9656568091,"osm_url":"https://www.openstreetmap.org/node/9656568091","source_timestamp":"2026-05-06T03:25:00Z","location_method":"node coordinate","osm_amenity":"clinic","osm_healthcare":"clinic","opening_hours":"Mo-Fr 08:00-12:00,13:00-17:00; PH off","website":"https://www.onemedical.com/locations/sf/hayesvalley/","operator":"1Life Healthcare"},"geometry":{"type":"Point","coordinates":[-122.422265,37.7740031]}},{"type":"Feature","id":"osm-node-9657843869","properties":{"layer":"service","service_type":"community_center","name":"Kanbar Performing Arts Center","source":"© OpenStreetMap contributors; OSM node/9657843869 (ODbL)","osm_type":"node","osm_id":9657843869,"osm_url":"https://www.openstreetmap.org/node/9657843869","source_timestamp":"2026-05-06T03:25:00Z","location_method":"node coordinate","osm_amenity":"community_centre","operator":"San Francisco Girls Chorus"},"geometry":{"type":"Point","coordinates":[-122.4216129,37.7744725]}},{"type":"Feature","id":"osm-node-9712745890","properties":{"layer":"service","service_type":"clinic","name":"Strut","source":"© OpenStreetMap contributors; OSM node/9712745890 (ODbL)","osm_type":"node","osm_id":9712745890,"osm_url":"https://www.openstreetmap.org/node/9712745890","source_timestamp":"2026-05-06T03:25:00Z","location_method":"node coordinate","osm_amenity":"clinic","osm_healthcare":"clinic","opening_hours":"Tu-Sa 10:00-20:00","website":"https://www.sfaf.org/locations/strut/","phone":"+1 415-581-1600","operator":"San Francisco AIDS Foundation"},"geometry":{"type":"Point","coordinates":[-122.435236,37.7613604]}},{"type":"Feature","id":"osm-node-9994033955","properties":{"layer":"service","service_type":"community_center","name":"Stem & Art","source":"© OpenStreetMap contributors; OSM node/9994033955 (ODbL)","osm_type":"node","osm_id":9994033955,"osm_url":"https://www.openstreetmap.org/node/9994033955","source_timestamp":"2026-05-06T03:25:00Z","location_method":"node coordinate","osm_amenity":"community_centre"},"geometry":{"type":"Point","coordinates":[-122.424728,37.7777942]}},{"type":"Feature","id":"osm-node-10065566475","properties":{"layer":"service","service_type":"clinic","name":"Carbon Health","source":"© OpenStreetMap contributors; OSM node/10065566475 (ODbL)","osm_type":"node","osm_id":10065566475,"osm_url":"https://www.openstreetmap.org/node/10065566475","source_timestamp":"2026-05-06T03:25:00Z","location_method":"node coordinate","osm_amenity":"clinic","osm_healthcare":"clinic","opening_hours":"Mo-Su 09:00-19:00","website":"https://carbonhealth.com/locations/san-francisco-ca-civic-center","phone":"+1 415-918-5766","operator":"Carbon Health"},"geometry":{"type":"Point","coordinates":[-122.4175521,37.776869]}},{"type":"Feature","id":"osm-node-10945332647","properties":{"layer":"service","service_type":"clinic","name":"Sutter 899 Valencia Street Care Center","source":"© OpenStreetMap contributors; OSM node/10945332647 (ODbL)","osm_type":"node","osm_id":10945332647,"osm_url":"https://www.openstreetmap.org/node/10945332647","source_timestamp":"2026-05-06T03:25:00Z","location_method":"node coordinate","osm_healthcare":"clinic","opening_hours":"Mo-Fr 08:00-17:00","website":"https://www.sutterhealth.org/find-location/facility/899-valencia-street-care-center-1043247413","phone":"+1-415-600-6960","operator":"Sutter Health"},"geometry":{"type":"Point","coordinates":[-122.4211436,37.7586382]}},{"type":"Feature","id":"osm-node-11198865804","properties":{"layer":"service","service_type":"clinic","name":"Adult Immunization & Travel Clinic","source":"© OpenStreetMap contributors; OSM node/11198865804 (ODbL)","osm_type":"node","osm_id":11198865804,"osm_url":"https://www.openstreetmap.org/node/11198865804","source_timestamp":"2026-05-06T03:25:00Z","location_method":"node coordinate","osm_amenity":"clinic","osm_healthcare":"clinic"},"geometry":{"type":"Point","coordinates":[-122.4185695,37.7783066]}},{"type":"Feature","id":"osm-node-11663320631","properties":{"layer":"service","service_type":"clinic","name":"One Medical","source":"© OpenStreetMap contributors; OSM node/11663320631 (ODbL)","osm_type":"node","osm_id":11663320631,"osm_url":"https://www.openstreetmap.org/node/11663320631","source_timestamp":"2026-05-06T03:25:00Z","location_method":"node coordinate","osm_amenity":"clinic","osm_healthcare":"clinic","operator":"1Life Healthcare"},"geometry":{"type":"Point","coordinates":[-122.4342714,37.76305]}},{"type":"Feature","id":"osm-node-11777394318","properties":{"layer":"service","service_type":"clinic","name":"Westside Community Services","source":"© OpenStreetMap contributors; OSM node/11777394318 (ODbL)","osm_type":"node","osm_id":11777394318,"osm_url":"https://www.openstreetmap.org/node/11777394318","source_timestamp":"2026-05-06T03:25:00Z","location_method":"node coordinate","osm_amenity":"clinic","osm_healthcare":"clinic","opening_hours":"Mo-Fr 07:30-12:00,12:30-16:00"},"geometry":{"type":"Point","coordinates":[-122.4147199,37.7726824]}},{"type":"Feature","id":"osm-node-12121537102","properties":{"layer":"service","service_type":"community_center","name":"The Commons","source":"© OpenStreetMap contributors; OSM node/12121537102 (ODbL)","osm_type":"node","osm_id":12121537102,"osm_url":"https://www.openstreetmap.org/node/12121537102","source_timestamp":"2026-05-06T03:25:00Z","location_method":"node coordinate","osm_amenity":"community_centre","website":"https://thesfcommons.com"},"geometry":{"type":"Point","coordinates":[-122.4260697,37.7761417]}},{"type":"Feature","id":"osm-node-12637114274","properties":{"layer":"service","service_type":"clinic","name":"Ucsf Alliance Health Project Services Center","source":"© OpenStreetMap contributors; OSM node/12637114274 (ODbL)","osm_type":"node","osm_id":12637114274,"osm_url":"https://www.openstreetmap.org/node/12637114274","source_timestamp":"2026-05-06T03:25:00Z","location_method":"node coordinate","osm_amenity":"clinic","osm_healthcare":"clinic"},"geometry":{"type":"Point","coordinates":[-122.4256835,37.7703567]}},{"type":"Feature","id":"osm-node-12863374039","properties":{"layer":"service","service_type":"clinic","name":"Milagros de Mexico","source":"© OpenStreetMap contributors; OSM node/12863374039 (ODbL)","osm_type":"node","osm_id":12863374039,"osm_url":"https://www.openstreetmap.org/node/12863374039","source_timestamp":"2026-05-06T03:25:00Z","location_method":"node coordinate","osm_amenity":"clinic","osm_healthcare":"clinic"},"geometry":{"type":"Point","coordinates":[-122.4192162,37.7585233]}},{"type":"Feature","id":"osm-node-12954274101","properties":{"layer":"service","service_type":"community_center","name":"La Raza Community Resource Center","source":"© OpenStreetMap contributors; OSM node/12954274101 (ODbL)","osm_type":"node","osm_id":12954274101,"osm_url":"https://www.openstreetmap.org/node/12954274101","source_timestamp":"2026-05-06T03:25:00Z","location_method":"node coordinate","osm_amenity":"community_centre","website":"https://www.larazacrc.org/"},"geometry":{"type":"Point","coordinates":[-122.4224369,37.7653881]}},{"type":"Feature","id":"osm-node-13207146235","properties":{"layer":"service","service_type":"community_center","name":"Decentered Arts Studio","source":"© OpenStreetMap contributors; OSM node/13207146235 (ODbL)","osm_type":"node","osm_id":13207146235,"osm_url":"https://www.openstreetmap.org/node/13207146235","source_timestamp":"2026-05-06T03:25:00Z","location_method":"node coordinate","osm_amenity":"community_centre","website":"https://decentered.org"},"geometry":{"type":"Point","coordinates":[-122.4092033,37.7753379]}},{"type":"Feature","id":"osm-node-13639606766","properties":{"layer":"service","service_type":"clinic","name":"Effin Relax","source":"© OpenStreetMap contributors; OSM node/13639606766 (ODbL)","osm_type":"node","osm_id":13639606766,"osm_url":"https://www.openstreetmap.org/node/13639606766","source_timestamp":"2026-05-06T03:25:00Z","location_method":"node coordinate","osm_amenity":"clinic","osm_healthcare":"clinic"},"geometry":{"type":"Point","coordinates":[-122.4387811,37.7790289]}},{"type":"Feature","id":"osm-node-13738256045","properties":{"layer":"service","service_type":"clinic","name":"AHF Healthcare Center","source":"© OpenStreetMap contributors; OSM node/13738256045 (ODbL)","osm_type":"node","osm_id":13738256045,"osm_url":"https://www.openstreetmap.org/node/13738256045","source_timestamp":"2026-05-06T03:25:00Z","location_method":"node coordinate","osm_amenity":"clinic","osm_healthcare":"clinic"},"geometry":{"type":"Point","coordinates":[-122.4351539,37.7605064]}},{"type":"Feature","id":"osm-way-24446086","properties":{"layer":"service","service_type":"library","name":"San Francisco Public Library - Main Library","source":"© OpenStreetMap contributors; OSM way/24446086 (ODbL)","osm_type":"way","osm_id":24446086,"osm_url":"https://www.openstreetmap.org/way/24446086","source_timestamp":"2026-05-06T03:25:00Z","location_method":"Overpass element center","osm_amenity":"library","opening_hours":"Su 12:00-18:00; Mo 09:00-18:00; Tu-Th 09:00-20:00; Fr 12:00-18:00; Sa 10:00-18:00; PH off","website":"https://sfpl.org/locations/main-library","phone":"+1 415-557-4400","operator":"San Francisco Public Library"},"geometry":{"type":"Point","coordinates":[-122.4157709,37.7791272]}},{"type":"Feature","id":"osm-way-24524033","properties":{"layer":"service","service_type":"school","name":"Mission High School","source":"© OpenStreetMap contributors; OSM way/24524033 (ODbL)","osm_type":"way","osm_id":24524033,"osm_url":"https://www.openstreetmap.org/way/24524033","source_timestamp":"2026-05-06T03:25:00Z","location_method":"Overpass element center","osm_amenity":"school","phone":"+1-415-241-6240","operator":"San Francisco Unified School District"},"geometry":{"type":"Point","coordinates":[-122.4272969,37.7620041]}},{"type":"Feature","id":"osm-way-112073353","properties":{"layer":"service","service_type":"community_center","name":"Harvey Milk Recreational Arts Center","source":"© OpenStreetMap contributors; OSM way/112073353 (ODbL)","osm_type":"way","osm_id":112073353,"osm_url":"https://www.openstreetmap.org/way/112073353","source_timestamp":"2026-05-06T03:25:00Z","location_method":"Overpass element center","osm_amenity":"community_centre","opening_hours":"Mo,Su off; Tu-Th 10:00-21:00; Fr 10:00-18:00; Sa 10:00-17:00","website":"https://sfrecpark.org/destination/duboce-park/harvey-milk-recreational-arts-center/","phone":"+1-415-554-8742"},"geometry":{"type":"Point","coordinates":[-122.4345718,37.7695449]}},{"type":"Feature","id":"osm-way-116553824","properties":{"layer":"service","service_type":"school","name":"McKinley Elementary School","source":"© OpenStreetMap contributors; OSM way/116553824 (ODbL)","osm_type":"way","osm_id":116553824,"osm_url":"https://www.openstreetmap.org/way/116553824","source_timestamp":"2026-05-06T03:25:00Z","location_method":"Overpass element center","osm_amenity":"school"},"geometry":{"type":"Point","coordinates":[-122.4363015,37.7668843]}},{"type":"Feature","id":"osm-way-138882589","properties":{"layer":"service","service_type":"school","name":"Children's Day School","source":"© OpenStreetMap contributors; OSM way/138882589 (ODbL)","osm_type":"way","osm_id":138882589,"osm_url":"https://www.openstreetmap.org/way/138882589","source_timestamp":"2026-05-06T03:25:00Z","location_method":"Overpass element center","osm_amenity":"school"},"geometry":{"type":"Point","coordinates":[-122.4250031,37.7642417]}},{"type":"Feature","id":"osm-way-167176657","properties":{"layer":"service","service_type":"community_center","name":"Third Space","source":"© OpenStreetMap contributors; OSM way/167176657 (ODbL)","osm_type":"way","osm_id":167176657,"osm_url":"https://www.openstreetmap.org/way/167176657","source_timestamp":"2026-05-06T03:25:00Z","location_method":"Overpass element center","osm_amenity":"community_centre"},"geometry":{"type":"Point","coordinates":[-122.4276421,37.7681533]}},{"type":"Feature","id":"osm-way-179496056","properties":{"layer":"service","service_type":"community_center","name":"SF LGBT Center","source":"© OpenStreetMap contributors; OSM way/179496056 (ODbL)","osm_type":"way","osm_id":179496056,"osm_url":"https://www.openstreetmap.org/way/179496056","source_timestamp":"2026-05-06T03:25:00Z","location_method":"Overpass element center","osm_amenity":"community_centre","website":"https://www.sfcenter.org/","phone":"+1-415-865-5555"},"geometry":{"type":"Point","coordinates":[-122.4241225,37.7717181]}},{"type":"Feature","id":"osm-way-192119078","properties":{"layer":"service","service_type":"school","name":"Thomas Edison Charter Academy","source":"© OpenStreetMap contributors; OSM way/192119078 (ODbL)","osm_type":"way","osm_id":192119078,"osm_url":"https://www.openstreetmap.org/way/192119078","source_timestamp":"2026-05-06T03:25:00Z","location_method":"Overpass element center","osm_amenity":"school","website":"https://www.teca-sf.org/","phone":"+1-415-970-3330","operator":"San Francisco Unified School District"},"geometry":{"type":"Point","coordinates":[-122.4260732,37.7544649]}},{"type":"Feature","id":"osm-way-192123449","properties":{"layer":"service","service_type":"school","name":"Adda Clevenger School","source":"© OpenStreetMap contributors; OSM way/192123449 (ODbL)","osm_type":"way","osm_id":192123449,"osm_url":"https://www.openstreetmap.org/way/192123449","source_timestamp":"2026-05-06T03:25:00Z","location_method":"Overpass element center","osm_amenity":"school","website":"https://www.addaclevenger.org/","phone":"+1 415-824-2240"},"geometry":{"type":"Point","coordinates":[-122.4244858,37.7538629]}},{"type":"Feature","id":"osm-way-197050441","properties":{"layer":"service","service_type":"school","name":"Marshall Elementary School","source":"© OpenStreetMap contributors; OSM way/197050441 (ODbL)","osm_type":"way","osm_id":197050441,"osm_url":"https://www.openstreetmap.org/way/197050441","source_timestamp":"2026-05-06T03:25:00Z","location_method":"Overpass element center","osm_amenity":"school"},"geometry":{"type":"Point","coordinates":[-122.4190415,37.7664743]}},{"type":"Feature","id":"osm-way-243466311","properties":{"layer":"service","service_type":"school","name":"Presidio Knolls School","source":"© OpenStreetMap contributors; OSM way/243466311 (ODbL)","osm_type":"way","osm_id":243466311,"osm_url":"https://www.openstreetmap.org/way/243466311","source_timestamp":"2026-05-06T03:25:00Z","location_method":"Overpass element center","osm_amenity":"school"},"geometry":{"type":"Point","coordinates":[-122.4139081,37.772904]}},{"type":"Feature","id":"osm-way-252221783","properties":{"layer":"service","service_type":"school","name":"Unnamed mapped facility","source":"© OpenStreetMap contributors; OSM way/252221783 (ODbL)","osm_type":"way","osm_id":252221783,"osm_url":"https://www.openstreetmap.org/way/252221783","source_timestamp":"2026-05-06T03:25:00Z","location_method":"Overpass element center","osm_amenity":"school"},"geometry":{"type":"Point","coordinates":[-122.4264563,37.7710246]}},{"type":"Feature","id":"osm-way-255958566","properties":{"layer":"service","service_type":"school","name":"San Francisco Conservatory of Music","source":"© OpenStreetMap contributors; OSM way/255958566 (ODbL)","osm_type":"way","osm_id":255958566,"osm_url":"https://www.openstreetmap.org/way/255958566","source_timestamp":"2026-05-06T03:25:00Z","location_method":"Overpass element center","osm_amenity":"school","website":"https://sfcm.edu/"},"geometry":{"type":"Point","coordinates":[-122.4204002,37.7755658]}},{"type":"Feature","id":"osm-way-256447055","properties":{"layer":"service","service_type":"library","name":"Eureka Valley / Harvey Milk Memorial Branch Library","source":"© OpenStreetMap contributors; OSM way/256447055 (ODbL)","osm_type":"way","osm_id":256447055,"osm_url":"https://www.openstreetmap.org/way/256447055","source_timestamp":"2026-05-06T03:25:00Z","location_method":"Overpass element center","osm_amenity":"library","opening_hours":"Mo,Sa 10:00-18:00; Tu-Th 10:00-20:00; Fr 13:00-18:00; Su 13:00-17:00","website":"https://sfpl.org/locations/eureka-valley","phone":"+1 415 3555616","operator":"San Francisco Public Library"},"geometry":{"type":"Point","coordinates":[-122.4319056,37.7640473]}},{"type":"Feature","id":"osm-way-256584828","properties":{"layer":"service","service_type":"community_center","name":"Ella Hill Hutch Community Center","source":"© OpenStreetMap contributors; OSM way/256584828 (ODbL)","osm_type":"way","osm_id":256584828,"osm_url":"https://www.openstreetmap.org/way/256584828","source_timestamp":"2026-05-06T03:25:00Z","location_method":"Overpass element center","osm_amenity":"community_centre"},"geometry":{"type":"Point","coordinates":[-122.4293042,37.7792903]}},{"type":"Feature","id":"osm-way-256785980","properties":{"layer":"service","service_type":"community_center","name":"Eureka Valley Recreation Center","source":"© OpenStreetMap contributors; OSM way/256785980 (ODbL)","osm_type":"way","osm_id":256785980,"osm_url":"https://www.openstreetmap.org/way/256785980","source_timestamp":"2026-05-06T03:25:00Z","location_method":"Overpass element center","osm_amenity":"community_centre","website":"https://www.sfparksalliance.org/our-parks/parks/eureka-valley-playground-rec-center","phone":"+1 415-831-6810","operator":"San Francisco Parks Alliance"},"geometry":{"type":"Point","coordinates":[-122.4364224,37.7602103]}},{"type":"Feature","id":"osm-way-260194175","properties":{"layer":"service","service_type":"community_center","name":"The Women's Building","source":"© OpenStreetMap contributors; OSM way/260194175 (ODbL)","osm_type":"way","osm_id":260194175,"osm_url":"https://www.openstreetmap.org/way/260194175","source_timestamp":"2026-05-06T03:25:00Z","location_method":"Overpass element center","osm_amenity":"community_centre","opening_hours":"Mo-We,Fr 09:00-16:00","website":"https://womensbuilding.org/"},"geometry":{"type":"Point","coordinates":[-122.4226132,37.7614205]}},{"type":"Feature","id":"osm-way-260345927","properties":{"layer":"service","service_type":"community_center","name":"Bayanihan Community Center","source":"© OpenStreetMap contributors; OSM way/260345927 (ODbL)","osm_type":"way","osm_id":260345927,"osm_url":"https://www.openstreetmap.org/way/260345927","source_timestamp":"2026-05-06T03:25:00Z","location_method":"Overpass element center","osm_amenity":"community_centre","website":"https://www.bayanihancc.org/"},"geometry":{"type":"Point","coordinates":[-122.409184,37.7809379]}},{"type":"Feature","id":"osm-way-260946369","properties":{"layer":"service","service_type":"community_center","name":"Centro Social Obrero","source":"© OpenStreetMap contributors; OSM way/260946369 (ODbL)","osm_type":"way","osm_id":260946369,"osm_url":"https://www.openstreetmap.org/way/260946369","source_timestamp":"2026-05-06T03:25:00Z","location_method":"Overpass element center","osm_amenity":"community_centre"},"geometry":{"type":"Point","coordinates":[-122.4113497,37.7602701]}},{"type":"Feature","id":"osm-way-261102266","properties":{"layer":"service","service_type":"clinic","name":"Mission Neighborhood Health Center","source":"© OpenStreetMap contributors; OSM way/261102266 (ODbL)","osm_type":"way","osm_id":261102266,"osm_url":"https://www.openstreetmap.org/way/261102266","source_timestamp":"2026-05-06T03:25:00Z","location_method":"Overpass element center","osm_amenity":"clinic","osm_healthcare":"clinic"},"geometry":{"type":"Point","coordinates":[-122.4165538,37.7645982]}},{"type":"Feature","id":"osm-way-261264906","properties":{"layer":"service","service_type":"school","name":"child care center- Lutheran Church","source":"© OpenStreetMap contributors; OSM way/261264906 (ODbL)","osm_type":"way","osm_id":261264906,"osm_url":"https://www.openstreetmap.org/way/261264906","source_timestamp":"2026-05-06T03:25:00Z","location_method":"Overpass element center","osm_amenity":"school"},"geometry":{"type":"Point","coordinates":[-122.4304271,37.768579]}},{"type":"Feature","id":"osm-way-266762279","properties":{"layer":"service","service_type":"school","name":"La Scuola International School","source":"© OpenStreetMap contributors; OSM way/266762279 (ODbL)","osm_type":"way","osm_id":266762279,"osm_url":"https://www.openstreetmap.org/way/266762279","source_timestamp":"2026-05-06T03:25:00Z","location_method":"Overpass element center","osm_amenity":"school"},"geometry":{"type":"Point","coordinates":[-122.4165093,37.7623071]}},{"type":"Feature","id":"osm-way-274157929","properties":{"layer":"service","service_type":"school","name":"Gateway Middle School","source":"© OpenStreetMap contributors; OSM way/274157929 (ODbL)","osm_type":"way","osm_id":274157929,"osm_url":"https://www.openstreetmap.org/way/274157929","source_timestamp":"2026-05-06T03:25:00Z","location_method":"Overpass element center","osm_amenity":"school"},"geometry":{"type":"Point","coordinates":[-122.4360126,37.7793364]}},{"type":"Feature","id":"osm-way-274158850","properties":{"layer":"service","service_type":"school","name":"Creative Arts Charter School","source":"© OpenStreetMap contributors; OSM way/274158850 (ODbL)","osm_type":"way","osm_id":274158850,"osm_url":"https://www.openstreetmap.org/way/274158850","source_timestamp":"2026-05-06T03:25:00Z","location_method":"Overpass element center","osm_amenity":"school"},"geometry":{"type":"Point","coordinates":[-122.4359868,37.779715]}},{"type":"Feature","id":"osm-way-300732286","properties":{"layer":"service","service_type":"school","name":"Sanchez Elementary School","source":"© OpenStreetMap contributors; OSM way/300732286 (ODbL)","osm_type":"way","osm_id":300732286,"osm_url":"https://www.openstreetmap.org/way/300732286","source_timestamp":"2026-05-06T03:25:00Z","location_method":"Overpass element center","osm_amenity":"school","operator":"San Francisco Unified School District"},"geometry":{"type":"Point","coordinates":[-122.4303809,37.7634624]}},{"type":"Feature","id":"osm-way-300732288","properties":{"layer":"service","service_type":"school","name":"Everett Middle School","source":"© OpenStreetMap contributors; OSM way/300732288 (ODbL)","osm_type":"way","osm_id":300732288,"osm_url":"https://www.openstreetmap.org/way/300732288","source_timestamp":"2026-05-06T03:25:00Z","location_method":"Overpass element center","osm_amenity":"school","operator":"San Francisco Unified School District"},"geometry":{"type":"Point","coordinates":[-122.4294106,37.7636429]}},{"type":"Feature","id":"osm-way-344661026","properties":{"layer":"service","service_type":"school","name":"Buena Vista Horace Mann","source":"© OpenStreetMap contributors; OSM way/344661026 (ODbL)","osm_type":"way","osm_id":344661026,"osm_url":"https://www.openstreetmap.org/way/344661026","source_timestamp":"2026-05-06T03:25:00Z","location_method":"Overpass element center","osm_amenity":"school","website":"http://bvhm-sfusd-ca.schoolloop.com/","phone":"+1-415-282-7869","operator":"San Francisco Unified School District"},"geometry":{"type":"Point","coordinates":[-122.4201791,37.7530189]}},{"type":"Feature","id":"osm-way-344667149","properties":{"layer":"service","service_type":"school","name":"John Muir Elementary School","source":"© OpenStreetMap contributors; OSM way/344667149 (ODbL)","osm_type":"way","osm_id":344667149,"osm_url":"https://www.openstreetmap.org/way/344667149","source_timestamp":"2026-05-06T03:25:00Z","location_method":"Overpass element center","osm_amenity":"school","operator":"San Francisco Unified School District"},"geometry":{"type":"Point","coordinates":[-122.4286616,37.7737726]}},{"type":"Feature","id":"osm-way-545423056","properties":{"layer":"service","service_type":"school","name":"Jewish Community High School of the Bay","source":"© OpenStreetMap contributors; OSM way/545423056 (ODbL)","osm_type":"way","osm_id":545423056,"osm_url":"https://www.openstreetmap.org/way/545423056","source_timestamp":"2026-05-06T03:25:00Z","location_method":"Overpass element center","osm_amenity":"school","website":"https://www.jchsofthebay.org/"},"geometry":{"type":"Point","coordinates":[-122.43676,37.7813543]}},{"type":"Feature","id":"osm-way-578689959","properties":{"layer":"service","service_type":"school","name":"Cesar Chavez Elementary School","source":"© OpenStreetMap contributors; OSM way/578689959 (ODbL)","osm_type":"way","osm_id":578689959,"osm_url":"https://www.openstreetmap.org/way/578689959","source_timestamp":"2026-05-06T03:25:00Z","location_method":"Overpass element center","osm_amenity":"school","website":"https://cces-sfusd-ca.schoolloop.com/","operator":"San Francisco Unified School District"},"geometry":{"type":"Point","coordinates":[-122.4148898,37.7549278]}},{"type":"Feature","id":"osm-way-587670476","properties":{"layer":"service","service_type":"clinic","name":"Health Right 360","source":"© OpenStreetMap contributors; OSM way/587670476 (ODbL)","osm_type":"way","osm_id":587670476,"osm_url":"https://www.openstreetmap.org/way/587670476","source_timestamp":"2026-05-06T03:25:00Z","location_method":"Overpass element center","osm_healthcare":"clinic"},"geometry":{"type":"Point","coordinates":[-122.4196653,37.7694331]}},{"type":"Feature","id":"osm-way-690979551","properties":{"layer":"service","service_type":"school","name":"German International School of Silicon Valley San Francisco","source":"© OpenStreetMap contributors; OSM way/690979551 (ODbL)","osm_type":"way","osm_id":690979551,"osm_url":"https://www.openstreetmap.org/way/690979551","source_timestamp":"2026-05-06T03:25:00Z","location_method":"Overpass element center","osm_amenity":"school","website":"https://www.gissv.org/gissv-home-english/locations/san-francisco"},"geometry":{"type":"Point","coordinates":[-122.4368265,37.7602332]}},{"type":"Feature","id":"osm-way-690982861","properties":{"layer":"service","service_type":"school","name":"Harvey Milk Civil Rights Academy","source":"© OpenStreetMap contributors; OSM way/690982861 (ODbL)","osm_type":"way","osm_id":690982861,"osm_url":"https://www.openstreetmap.org/way/690982861","source_timestamp":"2026-05-06T03:25:00Z","location_method":"Overpass element center","osm_amenity":"school"},"geometry":{"type":"Point","coordinates":[-122.4364879,37.7589327]}},{"type":"Feature","id":"osm-way-838847568","properties":{"layer":"service","service_type":"school","name":"Alvarado Elementary School","source":"© OpenStreetMap contributors; OSM way/838847568 (ODbL)","osm_type":"way","osm_id":838847568,"osm_url":"https://www.openstreetmap.org/way/838847568","source_timestamp":"2026-05-06T03:25:00Z","location_method":"Overpass element center","osm_amenity":"school","operator":"San Francisco Unified School District"},"geometry":{"type":"Point","coordinates":[-122.4381831,37.7537128]}},{"type":"Feature","id":"osm-way-960975186","properties":{"layer":"service","service_type":"community_center","name":"Noisebridge","source":"© OpenStreetMap contributors; OSM way/960975186 (ODbL)","osm_type":"way","osm_id":960975186,"osm_url":"https://www.openstreetmap.org/way/960975186","source_timestamp":"2026-05-06T03:25:00Z","location_method":"Overpass element center","osm_amenity":"community_centre","website":"https://noisebridge.net/wiki/272","operator":"Hackerz"},"geometry":{"type":"Point","coordinates":[-122.4186589,37.762434]}},{"type":"Feature","id":"osm-way-1090739372","properties":{"layer":"service","service_type":"school","name":"San Francisco Friends School","source":"© OpenStreetMap contributors; OSM way/1090739372 (ODbL)","osm_type":"way","osm_id":1090739372,"osm_url":"https://www.openstreetmap.org/way/1090739372","source_timestamp":"2026-05-06T03:25:00Z","location_method":"Overpass element center","osm_amenity":"school","website":"https://www.sffriendsschool.org/"},"geometry":{"type":"Point","coordinates":[-122.4229198,37.7689877]}},{"type":"Feature","id":"osm-way-1411600841","properties":{"layer":"service","service_type":"school","name":"The Mission Preparatory School","source":"© OpenStreetMap contributors; OSM way/1411600841 (ODbL)","osm_type":"way","osm_id":1411600841,"osm_url":"https://www.openstreetmap.org/way/1411600841","source_timestamp":"2026-05-06T03:25:00Z","location_method":"Overpass element center","osm_amenity":"school","website":"https://missionpreparatory.com/"},"geometry":{"type":"Point","coordinates":[-122.4088791,37.7551478]}},{"type":"Feature","id":"osm-way-1411601878","properties":{"layer":"service","service_type":"school","name":"George Moscone Elementary","source":"© OpenStreetMap contributors; OSM way/1411601878 (ODbL)","osm_type":"way","osm_id":1411601878,"osm_url":"https://www.openstreetmap.org/way/1411601878","source_timestamp":"2026-05-06T03:25:00Z","location_method":"Overpass element center","osm_amenity":"school","website":"https://www.sfusd.edu/school/george-r-moscone-elementary-school","operator":"San Francisco Unified School District"},"geometry":{"type":"Point","coordinates":[-122.4126627,37.7567416]}},{"type":"Feature","id":"osm-way-1411602880","properties":{"layer":"service","service_type":"school","name":"John O'Connell High School","source":"© OpenStreetMap contributors; OSM way/1411602880 (ODbL)","osm_type":"way","osm_id":1411602880,"osm_url":"https://www.openstreetmap.org/way/1411602880","source_timestamp":"2026-05-06T03:25:00Z","location_method":"Overpass element center","osm_amenity":"school","website":"https://www.sfusd.edu/school/john-oconnell-high-school"},"geometry":{"type":"Point","coordinates":[-122.4136764,37.759536]}},{"type":"Feature","id":"osm-way-1411604286","properties":{"layer":"service","service_type":"school","name":"Mission Dolores Academy","source":"© OpenStreetMap contributors; OSM way/1411604286 (ODbL)","osm_type":"way","osm_id":1411604286,"osm_url":"https://www.openstreetmap.org/way/1411604286","source_timestamp":"2026-05-06T03:25:00Z","location_method":"Overpass element center","osm_amenity":"school","website":"https://www.mdasf.org/#"},"geometry":{"type":"Point","coordinates":[-122.4278718,37.7640576]}},{"type":"Feature","id":"osm-relation-7394142","properties":{"layer":"service","service_type":"school","name":"International High School","source":"© OpenStreetMap contributors; OSM relation/7394142 (ODbL)","osm_type":"relation","osm_id":7394142,"osm_url":"https://www.openstreetmap.org/relation/7394142","source_timestamp":"2026-05-06T03:25:00Z","location_method":"Overpass element center","osm_amenity":"school","website":"https://www.internationalsf.org","operator":"National Center for International Schools"},"geometry":{"type":"Point","coordinates":[-122.4218473,37.7751619]}}]}
